#dP2019  4  1  0  0  0.00000000      96 __u+U ITR00 FIT  IAC
## 2047  86400.00000000   900.00000000 58574 0.0000000000000
+   91   C02C05C06C07C08C09C10C11C12C13C14C16E01E02E03E04E05
+        E07E08E09E11E12E13E14E15E18E19E21E24E25E26E27E30E31
+        E33E36G01G02G03G04G05G06G07G08G09G10G11G12G13G14G15
+        G16G17G18G19G20G21G22G23G24G25G26G27G28G29G30G31G32
+        R01R02R03R04R05R07R08R09R10R11R13R14R15R16R17R18R19
+        R20R21R22R23R24R26  0  0  0  0  0  0  0  0  0  0  0
++        12 12 10  9 10  9  9  8  8  9  8  9  6  6  6  6  6
++         6  6  6  5  5  6  6  6  6  6  6  6  6  7  6  5  6
++         6  6  4  4  4  4  4  4  4  4  4  4  4  3  4  4  4
++         4  4  4  3  4  4  4  4  4  4  4  4  4  4  4  4  3
++         5  5  6  6  5  6  5  6  6  5  6  6  6  6  5  5  6
++         6  6  6  5  5 10  0  0  0  0  0  0  0  0  0  0  0
%c M  cc GPS ccc cccc cccc cccc cccc ccccc ccccc ccccc ccccc
%c cc cc ccc ccc cccc cccc cccc cccc ccccc ccccc ccccc ccccc
%f  0.0000000  0.000000000  0.00000000000  0.000000000000000
%f  0.0000000  0.000000000  0.00000000000  0.000000000000000
%i    0    0    0    0      0      0      0      0         0
%i    0    0    0    0      0      0      0      0         0
/*                                                          
/*   RSA / INFORMATION & ANALYSIS CENTER (IAC) OF MCC       
/*   ULTRA-RAPID DETERMINATION                              
/* PCV:IGS14_2038 OL/AL:FES2004  NONE     YN ORB:CoN CLK:CoN
*  2019 04 01 15 45  0.00000000
PC02   4382.023802  41941.925748   1142.066882   -413.151190
PC05  21874.887197  36037.316759   1185.465360   -187.145680
PC06 -21246.241756  36615.487656  -1179.415251    616.352091
PC07  -7793.985945  29502.737896 -28777.031164     65.203413
PC08 -20739.639552  19042.440690  31374.987370    138.953585
PC09 -11177.583986  37445.174116 -16073.614885    651.872598
PC10   4181.517417  36204.464258 -20743.117414   -625.504574
PC11 -13350.140569  20032.402239  14125.781639    -79.921752
PC12 -24219.712013   7002.858976 -11815.814845    540.664993
PC13  -4320.294291  23265.865813  34937.228156   -627.285200
PC14 -10480.182000  19456.029367  17134.504727    713.905194
PC16 -17403.715231  38025.926390  -6100.686099   -472.147991
PE01  13632.034843  24539.248719  -9399.503566   -574.557256
PE02 -13669.744751 -24525.604737   9344.579874     54.029420
PE03  -2641.785895 -25510.724276  14792.197750   -150.410447
PE04  14919.687054   8990.334748 -23925.173477   -252.466438
PE05  11277.880132 -27192.679522  -3083.591870     81.574036
PE07 -18548.322668  12956.892775  19091.421114   -160.388303
PE08 -14901.011987  -8734.699167  24045.140645   6379.329249
PE09  18323.650906 -13190.464917 -19140.745997   6482.565025
PE11  28191.794658  -8388.584088  -3200.588127   5711.196456
PE12  24784.859683   5033.012626  15369.033740   6465.735057
PE13 -28217.919108   8430.315191   3049.545609    385.008134
PE14  19769.100929  -6444.675195  12574.560094   -512.802571
PE15 -25029.440193  -4609.227133 -15110.644373    915.262252
PE18 -23756.833655   -493.807513 -21486.896880   -612.428639
PE19   1179.933977  26418.491726 -13297.736356     -7.361338
PE21  -3835.526093  18343.828083 -22920.021846   -526.947687
PE24  18736.984927  -1685.575890  22842.460646   6155.033446
PE25   3879.275451 -18307.304889  22932.773674   1847.759752
PE26 -15034.592554  16577.671763  19383.723491   4731.740561
PE27 -18915.246394   1376.934202 -22727.482630    498.713047
PE30 -22852.125953 -16209.643814  -9544.526633   4985.981878
PE31  22878.195266  16371.346464   9205.552781    868.212269
PE33   7156.046314  15007.577653  24499.547072    847.921029
PE36  14888.072437 -16569.475620 -19476.389466    729.461085
PG01 -16782.233111 -13533.575782 -15896.796636   -192.685116
PG02  -6899.296617  14753.341083  21563.723440   -178.269855
PG03 -12672.503228 -22843.821052   4985.642336    187.685747
PG04 -19607.429396   4279.656709  17412.395528    142.652898
PG05    -98.577797  23158.626989  12700.919901      1.165726
PG06 -19395.448641   8270.027627  16216.674138    241.320713
PG07 -25519.982025  -7227.043459   4182.153332      3.591566
PG08    878.623789 -20207.544772 -17067.181753   -138.312538
PG09 -17137.044471  -1324.292516  20209.171296    435.969063
PG10  14538.616758  -4386.924469 -21735.765368     83.548295
PG11 -11534.393473 -13172.766263 -20457.025346   -634.588495
PG12  10394.652762  24202.225272   3896.108683    255.069814
PG13  -9865.892431  21453.781684 -12233.189392    -69.500888
PG14  18861.473864 -18445.926562  -1710.232482    -86.157544
PG15   3134.813911  19521.719107 -17813.184380   -320.627172
PG16    952.265774 -23621.381116  11459.857692    -29.536843
PG17 -20567.229086  12899.942190 -10260.252153     32.373566
PG18  -6918.837898 -15599.826843 -20870.359042     40.159822
PG19 -19856.384581  17506.610269  -3007.129757   -335.657380
PG20  18464.205947   5150.850024 -18547.035270    523.610770
PG21  26302.102000   3091.851899    924.025164   -221.027526
PG22  -9511.097450 -24662.090787  -2678.021881   -675.601260
PG23  -9978.062038 -12538.801899  21461.290262   -191.867539
PG24  13388.176782  14583.644031 -18010.859479    -64.192954
PG25  16274.209792  15827.019078  13791.835476   -740.454025
PG26   7527.106391 -16916.454524  18957.388148    164.669680
PG27  10333.326229 -22658.008618  -8884.755064    -98.769874
PG28 -14340.580597   2337.292528 -21624.798421    767.053451
PG29  13254.387726   6986.279098  21903.848882    235.712451
PG30 -25594.783068    487.830775  -7407.329098    -78.782474
PG31  18877.801965  -8576.806633  16844.614412     48.067350
PG32  19678.211273 -15719.544338  -8203.134231   -152.981703
PR01   9843.994624 -16088.085422 -17177.430967     41.676306
PR02   2077.321316 -25346.451204   1629.716227    361.590219
PR03  -6389.063569 -17598.164646  17344.521091     -6.933181
PR04 -11102.575307    941.716238  22965.259818    300.799874
PR05  -9304.623712  17937.983348  15592.122571     25.265766
PR07   6510.514888  17293.673970 -17565.939836    -17.515135
PR08  11008.826882    -79.840565 -22955.519445     18.421054
PR09   7532.157024  16439.753441 -17951.772667     62.159023
PR10  18592.720979  16757.137413  -4731.950561     46.676855
PR11  20557.318721   7273.122296  13208.607047    -61.570598
PR13  -6478.630324 -15709.577254  19000.506727    -21.955190
PR14 -18798.419738 -16630.194297   4585.824318     37.491648
PR15 -20739.774414  -8014.610110 -12481.573721    101.034841
PR16 -10620.997460   5711.075105 -22490.070791     10.468471
PR17 -10362.891477  -6667.124146 -22317.103548    216.817818
PR18 -22224.978435   3682.021065 -12011.188572    -11.893207
PR19 -22296.520681  11431.614010   4801.472338    -23.140228
PR20  -8199.995155  13158.939085  20283.372460   -373.594940
PR21  10937.643049   6253.804734  22186.272715    -39.920201
PR22  22958.382717  -5052.723574   9743.509341    -12.365440
PR23  19548.906212 -13176.850914  -9732.557837    219.003532
PR24   6211.824710 -13000.591285 -21063.189453   -178.870583
PR26 -10195.139463  13703.421541  18951.265677 999999.999999
EOF
